322P/SOHO,e,11.4650,351.4969,56.9160,2.507428,0.2482341,0.97997664,0.0000,08/21.0861/2023,2000,g 19.0,4.0
# From MPEC 2016-Y36
323P/SOHO,e,5.3175,324.4110,353.0305,2.583308,0.2373777,0.98474018,0.0000,03/14.4336/2025,2000,g 20.0,4.0
# From MPEC 2021-W31
324P/LaSagra,e,21.4027,270.5847,57.5466,3.094706,0.1810402,0.15360916,124.9068,03/26.0/2023,2000,g 13.0,4.0
# From MPEC 2022-TA0
325P/Yang-Gao,e,16.6968,257.4744,343.8756,3.527404,0.1487720,0.59356201,53.8101,03/26.0/2023,2000,g 14.0,4.0
# From MPC103849
326P/Hill,e,2.4711,99.8085,278.6532,4.062920,0.1203502,0.31834082,326.3601,03/26.0/2023,2000,g 13.5,4.0
# From MPEC 2023-B57
327P/VanNess,e,36.2505,173.9837,185.0191,3.561982,0.1466110,0.56315672,30.0019,03/26.0/2023,2000,g 16.0,4.0
# From MPC109148
328P/LONEOS-Tucker,e,17.6722,341.6218,30.5966,4.190296,0.1149045,0.55273535,303.7076,03/26.0/2023,2000,g 14.5,4.0
# From MPC101101
329P/LINEAR-Catalina,e,21.7089,87.6545,343.5531,5.187727,0.0834139,0.67830701,222.8087,03/26.0/2023,2000,g 13.5,4.0
# From MPEC 2022-K19
330P/Catalina,e,15.7129,293.0814,188.8445,6.621037,0.0578516,0.54901432,139.0227,03/26.0/2023,2000,g 12.0,4.0
# From MPEC 2022-C56
331P/Gibbs,e,9.7397,216.7517,184.5720,3.005216,0.1891866,0.04130579,170.8615,03/26.0/2023,2000,g 12.0,4.0
# From MPEC 2016-K18
332P/Ikeya-Murakami,e,9.3803,3.7831,152.2969,3.087530,0.1816717,0.48930443,106.2259,03/26.0/2023,2000,g 18.0,4.0
# From MPEC 2016-EI8
332P-B/Ikeya-Murakami,e,9.3805,3.8028,152.3711,3.082329,0.1821317,0.48970701,359.9699,03/17.0/2016,2000,g 19.0,4.0
# From MPEC 2016-K18
332P-C/Ikeya-Murakami,e,9.3793,3.7835,152.2882,3.087496,0.1816747,0.48930993,106.2419,03/26.0/2023,2000,g 16.5,4.0
# From MPEC 2016-ED0
332P-D/Ikeya-Murakami,e,9.3761,3.7923,152.4393,3.081138,0.1822373,0.48977814,359.9486,03/17.0/2016,2000,g 19.0,4.0
# From MPEC 2016-ED0
332P-E/Ikeya-Murakami,e,9.3774,3.8228,152.2825,3.079877,0.1823493,0.48922008,359.9889,03/17.0/2016,2000,g 21.0,4.0
# From MPEC 2016-ED0
332P-F/Ikeya-Murakami,e,9.5293,3.4757,152.8203,3.163214,0.1751908,0.49918860,359.8501,03/17.0/2016,2000,g 21.0,4.0
# From MPEC 2016-ED0
332P-G/Ikeya-Murakami,e,9.2523,3.6955,154.4000,3.050519,0.1849880,0.49200362,359.9006,03/19.0/2016,2000,g 19.0,4.0
# From MPC100285
332P-H/Ikeya-Murakami,e,9.3799,3.7832,152.2888,3.087679,0.1816586,0.48934534,106.1673,03/26.0/2023,2000,g 19.0,4.0
# From MPEC 2016-ED0
332P-I/Ikeya-Murakami,e,9.3791,3.8048,152.3297,3.081767,0.1821815,0.48955490,359.9360,03/17.0/2016,2000,g 20.5,2.0
# From MPEC 2016-EI8
332P-J/Ikeya-Murakami,e,9.4296,3.6729,152.7712,3.115165,0.1792596,0.49429435,359.8613,03/17.0/2016,2000,g 20.5,2.0
# From MPEC 2020-L06
333P/LINEAR,e,132.0127,115.6715,25.9870,4.221514,0.1136323,0.73639023,290.2025,03/26.0/2023,2000,g 15.0,4.0
# From MPC115888
334P/NEAT,e,20.3917,90.5670,90.0787,6.834932,0.0551573,0.35060199,117.0171,03/26.0/2023,2000,g 10.5,4.0
# From MPEC 2021-U31
335P/Gibbs,e,7.2928,330.8430,162.3047,3.578479,0.1455983,0.54625584,32.9042,03/26.0/2023,2000,g 17.0,4.0
# From MPC105244
336P/McNaught,e,17.8248,298.2731,308.6718,5.036545,0.0871977,0.44386433,195.8944,03/26.0/2023,2000,g 13.5,4.0
# From MPEC 2022-YN2
337P/WISE,e,15.3680,106.0309,161.1126,3.288377,0.1652844,0.49690747,44.2509,03/26.0/2023,2000,g 17.0,4.0
# From MPEC 2022-K19
338P/McNaught,e,25.3863,9.7986,4.5164,3.893204,0.1283049,0.41213543,296.3805,03/26.0/2023,2000,g 12.0,4.0
# From MPC101101
339P/Gibbs,e,5.7332,172.7228,27.4666,3.700279,0.1384689,0.63563237,338.1282,03/26.0/2023,2000,g 17.0,4.0
# From MPC133426
340P/Boattini,e,2.0779,291.6468,36.0409,4.249901,0.1124957,0.28067759,260.2437,03/26.0/2023,2000,g 14.3,4.0
# From MPEC 2022-K19
341P/Gibbs,e,3.7972,29.9678,312.2799,4.290133,0.1109169,0.41569991,275.8886,03/26.0/2023,2000,g 12.5,4.0
# From MPC101101
342P/SOHO,e,11.6669,27.7125,73.2479,3.041242,0.1858350,0.98281337,0.0000,10/19.2852/2021,2000,g  9.0,4.0
# From MPEC 2022-K19
343P/NEAT-LONEOS,e,5.5921,257.0997,137.5015,5.457809,0.0772995,0.58521573,173.4982,03/26.0/2023,2000,g 14.0,4.0
# From MPC109148
344P/Read,e,3.4957,273.1141,140.4639,4.860474,0.0919785,0.42334735,214.5436,03/26.0/2023,2000,g 13.0,4.0
# From MPEC 2022-K19
345P/LINEAR,e,2.7275,154.5137,196.6289,4.034066,0.1216437,0.22148003,296.3380,03/26.0/2023,2000,g 12.0,4.0
# From MPEC 2022-K19
346P/Catalina,e,22.2060,102.4519,335.9683,4.472775,0.1041930,0.50338112,232.4169,03/26.0/2023,2000,g 14.0,4.0
# From MPEC 2022-K19
347P/PANSTARRS,e,11.7540,261.0204,98.4340,3.604513,0.1440237,0.38618977,343.2821,03/26.0/2023,2000,g 15.0,4.0
# From MPEC 2022-ED3
348P/PANSTARRS,e,17.7370,312.9350,135.6900,3.151784,0.1761447,0.30712441,71.5806,03/26.0/2023,2000,g 14.0,4.0
# From MPEC 2022-K19
349P/Lemmon,e,5.4897,331.7562,255.8657,3.576764,0.1457030,0.29840602,297.5810,03/26.0/2023,2000,g 14.0,4.0
# From MPC111775
350P/McNaught,e,7.3645,65.2941,139.7063,4.083895,0.1194242,0.09360062,230.2729,03/26.0/2023,2000,g 14.0,4.0
# From MPC105244
351P/Wiegert-PANSTARRS,e,12.7781,283.4163,352.6626,4.439555,0.1053647,0.29502289,282.9128,03/26.0/2023,2000,g 12.5,4.0
# From MPC110086
352P/Skiff,e,21.0137,28.0006,309.3684,6.646396,0.0575208,0.61765308,120.9243,03/26.0/2023,2000,g 11.5,4.0
# From MPEC 2020-AA5
353P/McNaught,e,28.4095,121.5180,230.4900,4.170585,0.1157201,0.47032851,221.9785,03/26.0/2023,2000,g 14.5,4.0
# From MPC105545
354P/LINEAR,e,5.2511,320.1045,132.6226,2.290909,0.2842446,0.12502470,302.6597,03/26.0/2023,2000,g 15.5,4.0
# From MPEC 2023-CD7
355P/LINEAR-NEAT,e,11.0470,51.4335,336.3192,3.469047,0.1525417,0.50789254,303.1920,03/26.0/2023,2000,g 15.5,2.0
# From MPEC 2022-F14
356P/WISE,e,9.6375,160.7910,226.0723,4.156428,0.1163118,0.35596754,223.4933,03/26.0/2023,2000,g 14.0,4.0
# From MPC114609
357P/Hill,e,6.3164,44.5580,1.4145,4.457545,0.1047274,0.43587644,184.2958,03/26.0/2023,2000,g 15.5,4.0
# From MPEC 2020-HN5
358P/PANSTARRS,e,11.0601,85.7010,299.7715,3.146951,0.1765506,0.23906019,319.3705,03/26.0/2023,2000,g 18.0,4.0
# From MPC110086
359P/LONEOS,e,10.2648,149.7491,200.2882,4.640361,0.0985999,0.32404888,201.1831,03/26.0/2023,2000,g 13.5,4.0
# From MPC108599
360P/WISE,e,24.1109,2.1901,354.2139,3.699461,0.1385149,0.49930015,282.7607,03/26.0/2023,2000,g 19.5,6.0
# From MPEC 2023-CD7
361P/Spacewatch,e,13.9035,203.2593,219.0084,4.934905,0.0899054,0.43914432,155.1704,03/26.0/2023,2000,g 12.0,4.0
# From MPEC 2017-V13
362P/,e,15.5570,192.5449,53.5744,3.972346,0.1244897,0.27871016,299.9323,03/26.0/2023,2000,g 12.9,2.0
# From MPC114609
363P/Lemmon,e,5.4023,146.8707,340.8891,3.569527,0.1461464,0.51964941,272.5721,03/26.0/2023,2000,g 17.5,4.0
# From MPEC 2023-F81
364P/PANSTARRS,e,12.1354,46.1531,212.0113,2.880455,0.2016102,0.72181376,350.1179,03/26.0/2023,2000,g 17.0,2.0
# From MPC111775
365P/PANSTARRS,e,9.8437,86.3090,67.7517,3.156875,0.1757187,0.58136543,325.3197,03/26.0/2023,2000,g 17.0,4.0
# From MPC114610
366P/Spacewatch,e,8.8569,70.7628,153.0279,3.497225,0.1507019,0.34808168,257.9378,03/26.0/2023,2000,g 15.0,4.0
# From MPC112395
367P/Catalina,e,8.4593,58.7175,172.7729,3.508194,0.1499957,0.27972398,261.2915,03/26.0/2023,2000,g 17.5,2.0
# From MPC114610
368P/NEAT,e,15.4830,257.8353,118.9427,5.530103,0.0757887,0.62671199,125.2197,03/26.0/2023,2000,g 14.0,4.0
# From MPC114610
369P/Hill,e,10.3246,47.2922,13.1596,4.381264,0.1074744,0.55551349,174.2400,03/26.0/2023,2000,g 15.0,4.0
# From MPEC 2021-F20
370P/NEAT,e,19.4270,55.0665,356.7153,6.435084,0.0603772,0.61540923,105.5897,03/26.0/2023,2000,g 13.0,4.0
# From MPC114610
371P/LINEAR-Skiff,e,17.3865,67.2384,308.5722,4.180624,0.1153035,0.47709695,188.1169,03/26.0/2023,2000,g 16.0,4.0
# From MPEC 2020-K19
372P/McNaught,e,9.5057,325.8154,27.6650,4.508492,0.1029573,0.15239274,166.1250,03/26.0/2023,2000,g 13.5,4.0
# From MPEC 2021-F20
373P/Rinner,e,13.7703,231.9651,221.0034,3.800481,0.1330290,0.39303019,192.4564,03/26.0/2023,2000,g 14.5,4.0
# From MPC114610
374P/Larson,e,10.7662,7.9129,51.4556,4.971391,0.0889175,0.46347391,136.3861,03/26.0/2023,2000,g 14.0,4.0
# From MPEC 2021-F20
375P/Hill,e,17.3620,359.9400,119.3638,5.549405,0.0753936,0.65908529,117.3072,03/26.0/2023,2000,g 16.0,4.0
# From MPEC 2022-K19
376P/LONEOS,e,1.1696,313.3918,285.0698,5.764478,0.0712138,0.51562036,91.3281,03/26.0/2023,2000,g 12.5,4.0
# From MPEC 2022-N37
377P/Scotti,e,9.0242,226.0662,354.9956,6.702628,0.0567984,0.25129737,56.1081,03/26.0/2023,2000,g  9.5,4.0
# From MPEC 2023-D41
378P/McNaught,e,19.0703,94.0336,193.5839,6.321050,0.0620184,0.46712494,55.2837,03/26.0/2023,2000,g 12.0,4.0
# From MPC115889
379P/Spacewatch,e,12.4511,183.8337,30.5528,3.504598,0.1502266,0.34529742,199.6905,03/26.0/2023,2000,g 15.0,4.0
# From MPEC 2023-C45
380P/PANSTARRS,e,8.0677,130.6002,86.7269,4.410924,0.1063922,0.34329406,149.6489,03/26.0/2023,2000,g 12.5,4.0
# From MPEC 2021-J28
381P/LINEAR-Spacewatch,e,28.3765,173.7632,173.3045,7.137967,0.0516824,0.68172298,65.9406,03/26.0/2023,2000,g 17.5,2.0
# From MPEC 2022-Y15
382P/Larson,e,8.4101,173.5544,165.0851,6.135508,0.0648527,0.28549043,29.4215,03/26.0/2023,2000,g  8.0,4.0
# From MPEC 2022-OB6
383P/Christensen,e,12.3265,207.8192,133.7860,3.547145,0.1475318,0.59929666,183.8877,03/26.0/2023,2000,g 18.0,4.0
# From MPEC 2022-OB6
384P/Kowalski,e,7.2836,354.2207,37.6526,2.899678,0.1996087,0.61623237,251.5879,03/26.0/2023,2000,g 19.5,4.0
# From MPEC 2021-F20
385P/Hill,e,16.8305,357.0580,44.3560,4.288538,0.1109788,0.40208730,142.8424,03/26.0/2023,2000,g 13.0,4.0
# From MPEC 2021-L04
386P/PANSTARRS,e,15.2327,134.9315,353.1039,4.052369,0.1208205,0.41648836,114.6490,03/26.0/2023,2000,g 14.5,4.0
# From MPEC 2021-J28
387P/Boattini,e,8.9326,259.2434,162.8094,4.796986,0.0938105,0.73684075,121.5675,03/26.0/2023,2000,g 15.0,4.0
# From MPEC 2021-S45
388P/Gibbs,e,23.8894,37.0482,42.2922,5.240997,0.0821454,0.61880581,110.1222,03/26.0/2023,2000,g 13.0,4.0
# From MPEC 2022-OB6
389P/Siding Spring,e,160.0858,218.8815,249.3975,5.633494,0.0737119,0.70451424,87.1483,03/26.0/2023,2000,g 16.0,4.0
# From MPEC 2022-OB6
